#dP2019  7  8  0  0  0.00000000      96 __u+U ITR00 FIT  IAC
## 2061  86400.00000000   900.00000000 58672 0.0000000000000
+   98   C01C03C04C05C06C07C08C09C10C11C12C13C14C16E01E02E03
+        E04E05E07E08E09E11E12E13E14E15E18E19E21E24E25E26E27
+        E30E31E33E36G01G02G03G04G05G06G07G08G09G10G11G12G13
+        G14G15G16G17G18G19G20G21G22G23G24G25G26G27G28G29G30
+        G31G32J01J02J03J07R01R02R03R04R05R07R08R09R10R11R12
+        R13R14R15R16R17R18R19R20R21R22R23R24R26  0  0  0  0
++         0 13  0 12  9  9  8  8  8  8  8  8  8  8  5  5  6
++         5  5  6  6  5  5  5  6  6  6  5  5  5  5  5  5  5
++         5  5  5  5  4  3  4  4  4  4  4  4  4  3  4  3  4
++         4  3  3  4  4  4  3  4  4  4  4  4  4  4  4  3  3
++         3  4  9 11  9 14  5  6  6  5  5  5  5  5  5  5  6
++         6  5  5  6  5  5  6  6  5  5  5  6  8  0  0  0  0
%c M  cc GPS ccc cccc cccc cccc cccc ccccc ccccc ccccc ccccc
%c cc cc ccc ccc cccc cccc cccc cccc ccccc ccccc ccccc ccccc
%f  0.0000000  0.000000000  0.00000000000  0.000000000000000
%f  0.0000000  0.000000000  0.00000000000  0.000000000000000
%i    0    0    0    0      0      0      0      0         0
%i    0    0    0    0      0      0      0      0         0
/*                                                          
/*   RSA / INFORMATION & ANALYSIS CENTER (IAC) OF MCC       
/*   ULTRA-RAPID DETERMINATION                              
/* PCV:IGS14_2056 OL/AL:FES2004  NONE     YN ORB:CoN CLK:CoN
*  2019 07 08  9 30  0.00000000
PC01      0.000000      0.000000      0.000000 999999.999999
PC03 -14847.955366  39473.247538    473.656961    706.243028
PC04      0.000000      0.000000      0.000000 999999.999999
PC05  21889.405358  36048.993842    964.917123   -357.541637
PC06 -20108.215335  37291.455407    592.581132    563.113118
PC07  -8671.397367  27917.824714 -30091.071099      9.609828
PC08 -19033.117922  20301.212706  31663.488433    167.912612
PC09 -10281.863778  38336.059682 -14485.046502   -203.269629
PC10   5599.110078  35562.189221 -21444.015592     32.334628
PC11 -14588.738947  21179.365012  10805.674950    235.494012
PC12 -22617.510364   5944.005886 -15107.291365    842.703675
PC13  -4937.117074  23375.782265  34762.738220   -828.286154
PC14 -10828.305646  16793.521741  19563.603303    537.438250
PC16 -17812.530604  38259.375015  -2075.993248   -896.072609
PE01   1903.535090 -18776.831818  22806.117108   -642.603010
PE02  -1852.879870  18803.858041 -22784.806812     68.338695
PE03  -8716.837193  28109.894172   3091.067247   -185.917344
PE04  -4876.617956 -25264.297020  14647.779892   -318.928100
PE05 -17304.359916  14499.351876  19151.132342   -468.277021
PE07  15723.337219   7498.779996 -23916.633519   -222.319086
PE08   5055.296272  25131.454226 -14776.439939   6327.379797
PE09 -15658.681436  -7336.146355  24038.656939   6385.268087
PE11 -25385.669874  -2417.604225 -15054.776020   5659.090020
PE12  -8081.960476 -14515.449414 -24501.024801   6308.560095
PE13  25295.108131   2346.043618  15189.036657    389.677787
PE14 -19436.099455  20019.598922  -4997.967264   -634.796185
PE15   8497.142151  14254.616961  24512.380216    903.993978
PE18   8765.131586 -25981.928412 -10317.106712   -730.617176
PE19   9811.825754 -27482.375696  -4951.890266     -5.282213
PE21  18610.397325  -3274.026590  22778.940586   -543.058095
PE24 -24252.674413 -14027.716519  -9547.285019   5988.155818
PE25 -18667.696291   3191.648967 -22746.436152   1749.175142
PE26  27380.388993 -10811.067108  -3116.648777   4364.719828
PE27  24297.508437  14113.862479   9299.045743    433.405182
PE30  15701.609499  23257.713921  -9426.070134   4727.863775
PE31 -15709.104926 -23183.146389   9616.001163   -466.284864
PE33  13315.159495 -17841.647938 -19502.631481   -469.837533
PE36 -27321.402945  10976.046369   3068.734699    690.142737
PG01 -13150.749584 -13461.038612 -19065.249514    -61.537705
PG02 -10171.785598  14614.349758  20274.467583   -255.321968
PG03 -13061.756373 -23160.071633   1035.827184    182.230726
PG04 -18016.583632   2482.754288  19369.495486    170.617062
PG05  -1576.593937  20783.606600  16217.049817      0.158536
PG06 -23032.217468   6901.113326  11361.015688    155.758456
PG07 -24466.689131  -7250.589519   8481.150183    -60.081184
PG08   1868.675841 -22105.479348 -14421.327720   -150.399265
PG09 -14879.818284  -4869.049791  21416.870636    375.451425
PG10  16338.536407   -246.483902 -20914.137919     -9.023760
PG11  -8200.052554 -14446.803329 -21245.099648   -566.326088
PG12   9947.157192  24692.989460  -1461.606610    225.894864
PG13 -11591.304715  22628.006890  -7697.997446    -55.578018
PG14  18535.692990 -17746.138479  -6141.978874    -72.514678
PG15   1300.940829  22050.146122 -14733.151333   -302.238285
PG16   3321.027398 -20242.953954  16432.778950    -54.443838
PG17 -19279.159498  11850.170025 -13428.345978     85.013579
PG18  -3382.363081 -15431.231926 -21862.799608     68.191654
PG19 -19554.119897  16150.033096  -8292.430598   -296.841651
PG20  19950.362717   8112.153322 -15749.743249    525.841273
PG21  26002.925295   2860.153994   4819.864844   -158.638894
PG22  -9608.311329 -23972.434817  -6168.117233   -728.160974
PG23  -6386.383311 -17000.507938  19591.152351   -178.225708
PG24  10348.891680  14473.521455 -19969.363673    -68.538283
PG25  17153.133529  17585.335940  10200.047995   -771.827629
PG26  10227.586112 -12450.253511  21066.977326    246.077185
PG27  11632.391857 -23415.574073  -3745.184752   -179.015953
PG28 -15601.747664  -1204.259775 -20842.639389    766.718180
PG29  11548.512200   9037.631836  22108.503289    156.850214
PG30 -26555.812613   -328.748878  -2401.153453   -138.966353
PG31  22417.081466  -7388.681044  12605.492039     25.763488
PG32  18955.758069 -12731.110237 -13399.425056    -11.497137
PJ01 -26081.496455  25273.514835  26461.495175   -275.955405
PJ02 -25940.113314  15254.643854 -25110.035224 999999.999999
PJ03 -25714.819738  33252.615495    -14.607878      1.775682
PJ07 -25417.954503  33639.703003     40.193826     -0.044392
PR01   5529.980390  22342.529739 -10969.855964     46.436160
PR02  10734.013699   4000.698280 -22752.123114    377.315111
PR03   8952.298455 -14940.310269 -18572.601177     -2.041469
PR04   1604.037415 -25259.725421  -3086.848599    313.015927
PR05  -6088.804336 -20955.735102  13207.937773     31.515456
PR07  -8850.403347  15441.186810  18329.374117    -23.066405
PR08  -2070.962391  25124.992010   3972.205411     16.858937
PR09 -22182.906848  -7162.165078 -10429.229594     79.043610
PR10 -14103.786118   2912.165431 -21094.950959     53.952787
PR11   3247.240397  13759.511265 -21202.652293    -71.992717
PR12  17714.371422  15619.427815  -9629.624236     41.740338
PR13  22562.272150   8282.917922   8512.825118    -25.680668
PR14  13969.691798  -3430.216524  21072.960924     40.731654
PR15  -2475.873375 -13326.148075  21631.974255    102.987842
PR16 -17941.929088 -15346.508381   9493.853005      7.700661
PR17  21922.210773 -13015.259224  -1298.709644    241.954745
PR18  11606.102831 -15231.715261 -16811.734965     -0.481486
PR19  -4573.283213  -9389.303145 -23277.306969    -40.799683
PR20 -20063.507334   2766.353823 -15535.346552   -383.650777
PR21 -21703.745019  13226.259646   1992.736127    -58.541249
PR22  -9344.684323  14777.693456  18625.223929    -27.465930
PR23   9968.674221   6136.112678  22649.964704    239.325321
PR24  20830.913507  -4343.979303  14024.880060   -182.377704
PR26 -18374.003355   1143.985305 -17635.862612 999999.999999
EOF
